start=new Date('2022-11-25T00:00:00.000Z').valueOf();
sats=[{"FILE":"3669335","OBJECT_TYPE":"PAYLOAD","PERIOD":"95.253","MEAN_MOTION":"15.11760557","OBJECT_ID":"2020-019BL","LAUNCH_DATE":"2020-03-18","CLASSIFICATION_TYPE":"U","REV_AT_EPOCH":"14813","SEMIMAJOR_AXIS":"6908.968","MEAN_MOTION_DOT":"0.00015800","ARG_OF_PERICENTER":"147.5514","MEAN_ANOMALY":"212.5724","TIME_SYSTEM":"UTC","MEAN_ELEMENT_THEORY":"SGP4","ELEMENT_SET_NO":"999","TLE_LINE1":"1 45418U 20019BL  22328.72906360  .00015800  00000-0  93083-3 0  9994","PERIAPSIS":"528.060","TLE_LINE2":"2 45418  52.9955 176.5033 0004013 147.5514 212.5724 15.11760557148137","SITE":"AFETR","APOAPSIS":"533.605","INCLINATION":"52.9955","GP_ID":"218721092","DECAY_DATE":null,"EPOCH":"2022-11-24T17:29:51.095040","RA_OF_ASC_NODE":"176.5033","CENTER_NAME":"EARTH","BSTAR":"0.00093083000000","RCS_SIZE":"LARGE","ECCENTRICITY":"0.00040130","MEAN_MOTION_DDOT":"0.0000000000000","REF_FRAME":"TEME","COUNTRY_CODE":"US","EPHEMERIS_TYPE":"0","OBJECT_NAME":"STARLINK-1299","NORAD_CAT_ID":"45418"},{"SEMIMAJOR_AXIS":"6925.383","REV_AT_EPOCH":"14846","CLASSIFICATION_TYPE":"U","MEAN_MOTION_DOT":"0.00001031","FILE":"3669335","OBJECT_TYPE":"PAYLOAD","OBJECT_ID":"2020-019BM","LAUNCH_DATE":"2020-03-18","MEAN_MOTION":"15.06388832","PERIOD":"95.593","PERIAPSIS":"546.354","TLE_LINE2":"2 45419  53.0532 157.7343 0001290  96.2608 263.8527 15.06388832148466","INCLINATION":"53.0532","SITE":"AFETR","APOAPSIS":"548.141","MEAN_ANOMALY":"263.8527","ARG_OF_PERICENTER":"96.2608","MEAN_ELEMENT_THEORY":"SGP4","TIME_SYSTEM":"UTC","TLE_LINE1":"1 45419U 20019BM  22328.77617085  .00001031  00000-0  88098-4 0  9995","ELEMENT_SET_NO":"999","EPOCH":"2022-11-24T18:37:41.161440","RA_OF_ASC_NODE":"157.7343","RCS_SIZE":"LARGE","BSTAR":"0.00008809800000","CENTER_NAME":"EARTH","GP_ID":"218720347","DECAY_DATE":null,"NORAD_CAT_ID":"45419","ECCENTRICITY":"0.00012900","REF_FRAME":"TEME","MEAN_MOTION_DDOT":"0.0000000000000","COUNTRY_CODE":"US","EPHEMERIS_TYPE":"0","OBJECT_NAME":"STARLINK-1308"},{"DECAY_DATE":null,"GP_ID":"218720860","RCS_SIZE":"LARGE","BSTAR":"0.00002593500000","CENTER_NAME":"EARTH","RA_OF_ASC_NODE":"98.4710","EPOCH":"2022-11-24T14:41:29.120640","OBJECT_NAME":"STARLINK-1329","COUNTRY_CODE":"US","EPHEMERIS_TYPE":"0","REF_FRAME":"TEME","MEAN_MOTION_DDOT":"0.0000000000000","ECCENTRICITY":"0.00013610","NORAD_CAT_ID":"45531","OBJECT_ID":"2020-025A","LAUNCH_DATE":"2020-04-22","PERIOD":"95.593","MEAN_MOTION":"15.06393907","OBJECT_TYPE":"PAYLOAD","FILE":"3669335","MEAN_MOTION_DOT":"0.00000105","SEMIMAJOR_AXIS":"6925.367","CLASSIFICATION_TYPE":"U","REV_AT_EPOCH":"14406","TLE_LINE1":"1 45531U 20025A   22328.61214260  .00000105  00000-0  25935-4 0  9990","ELEMENT_SET_NO":"999","MEAN_ELEMENT_THEORY":"SGP4","TIME_SYSTEM":"UTC","MEAN_ANOMALY":"278.8428","ARG_OF_PERICENTER":"81.2715","INCLINATION":"53.0556","SITE":"AFETR","APOAPSIS":"548.175","TLE_LINE2":"2 45531  53.0556  98.4710 0001361  81.2715 278.8428 15.06393907144065","PERIAPSIS":"546.290"},{"OBJECT_TYPE":"PAYLOAD","PERIOD":"95.592","MEAN_MOTION":"15.06396330","LAUNCH_DATE":"2020-04-22","OBJECT_ID":"2020-025B","FILE":"3669335","MEAN_MOTION_DOT":"0.00000919","REV_AT_EPOCH":"14405","CLASSIFICATION_TYPE":"U","SEMIMAJOR_AXIS":"6925.360","ELEMENT_SET_NO":"999","TLE_LINE1":"1 45532U 20025B   22328.55685102  .00000919  00000-0  80564-4 0  9993","ARG_OF_PERICENTER":"87.1630","MEAN_ANOMALY":"272.9514","TIME_SYSTEM":"UTC","MEAN_ELEMENT_THEORY":"SGP4","TLE_LINE2":"2 45532  53.0555  98.7270 0001352  87.1630 272.9514 15.06396330144053","SITE":"AFETR","APOAPSIS":"548.161","INCLINATION":"53.0555","PERIAPSIS":"546.288","GP_ID":"218721603","DECAY_DATE":null,"RA_OF_ASC_NODE":"98.7270","CENTER_NAME":"EARTH","RCS_SIZE":"LARGE","BSTAR":"0.00008056400000","EPOCH":"2022-11-24T13:21:51.928128","COUNTRY_CODE":"US","EPHEMERIS_TYPE":"0","OBJECT_NAME":"STARLINK-1338","ECCENTRICITY":"0.00013520","MEAN_MOTION_DDOT":"0.0000000000000","REF_FRAME":"TEME","NORAD_CAT_ID":"45532"},{"MEAN_MOTION_DOT":"-0.00000109","CLASSIFICATION_TYPE":"U","REV_AT_EPOCH":"14346","SEMIMAJOR_AXIS":"6925.345","OBJECT_TYPE":"PAYLOAD","PERIOD":"95.592","MEAN_MOTION":"15.06401136","OBJECT_ID":"2020-025D","LAUNCH_DATE":"2020-04-22","FILE":"3669060","TLE_LINE2":"2 45534  53.0562  98.6593 0001661  55.2618 304.8527 15.06401136143469","SITE":"AFETR","APOAPSIS":"548.360","INCLINATION":"53.0562","PERIAPSIS":"546.060","ELEMENT_SET_NO":"999","TLE_LINE1":"1 45534U 20025D   22328.56790504 -.00000109  00000-0  11608-4 0  9994","ARG_OF_PERICENTER":"55.2618","MEAN_ANOMALY":"304.8527","TIME_SYSTEM":"UTC","MEAN_ELEMENT_THEORY":"SGP4","RA_OF_ASC_NODE":"98.6593","CENTER_NAME":"EARTH","RCS_SIZE":"LARGE","BSTAR":"0.00001160800000","EPOCH":"2022-11-24T13:37:46.995456","GP_ID":"218697025","DECAY_DATE":null,"NORAD_CAT_ID":"45534","EPHEMERIS_TYPE":"0","COUNTRY_CODE":"US","OBJECT_NAME":"STARLINK-1341","ECCENTRICITY":"0.00016610","REF_FRAME":"TEME","MEAN_MOTION_DDOT":"0.0000000000000"},{"COUNTRY_CODE":"US","EPHEMERIS_TYPE":"0","OBJECT_NAME":"STARLINK-1350","ECCENTRICITY":"0.00013640","REF_FRAME":"TEME","MEAN_MOTION_DDOT":"0.0000000000000","NORAD_CAT_ID":"45535","GP_ID":"218720110","DECAY_DATE":null,"RA_OF_ASC_NODE":"98.2878","CENTER_NAME":"EARTH","BSTAR":"0.00011555000000","RCS_SIZE":"LARGE","EPOCH":"2022-11-24T15:39:51.849216","ELEMENT_SET_NO":"999","TLE_LINE1":"1 45535U 20025E   22328.65268344  .00001440  00000-0  11555-3 0  9995","ARG_OF_PERICENTER":"98.7253","MEAN_ANOMALY":"261.3891","TIME_SYSTEM":"UTC","MEAN_ELEMENT_THEORY":"SGP4","TLE_LINE2":"2 45535  53.0581  98.2878 0001364  98.7253 261.3891 15.06401780144074","SITE":"AFETR","APOAPSIS":"548.153","INCLINATION":"53.0581","PERIAPSIS":"546.263","OBJECT_TYPE":"PAYLOAD","PERIOD":"95.592","MEAN_MOTION":"15.06401780","OBJECT_ID":"2020-025E","LAUNCH_DATE":"2020-04-22","FILE":"3669335","MEAN_MOTION_DOT":"0.00001440","REV_AT_EPOCH":"14407","CLASSIFICATION_TYPE":"U","SEMIMAJOR_AXIS":"6925.343"},{"ELEMENT_SET_NO":"999","TLE_LINE1":"1 45536U 20025F   22328.65637156  .00002219  00000-0  16784-3 0  9991","TIME_SYSTEM":"UTC","MEAN_ELEMENT_THEORY":"SGP4","ARG_OF_PERICENTER":"85.4606","MEAN_ANOMALY":"274.6559","APOAPSIS":"548.297","SITE":"AFETR","INCLINATION":"53.0551","TLE_LINE2":"2 45536  53.0551  98.2702 0001545  85.4606 274.6559 15.06395559144067","PERIAPSIS":"546.157","MEAN_MOTION":"15.06395559","PERIOD":"95.592","LAUNCH_DATE":"2020-04-22","OBJECT_ID":"2020-025F","OBJECT_TYPE":"PAYLOAD","FILE":"3669335","MEAN_MOTION_DOT":"0.00002219","CLASSIFICATION_TYPE":"U","REV_AT_EPOCH":"14406","SEMIMAJOR_AXIS":"6925.362","OBJECT_NAME":"STARLINK-1352","EPHEMERIS_TYPE":"0","COUNTRY_CODE":"US","MEAN_MOTION_DDOT":"0.0000000000000","REF_FRAME":"TEME","ECCENTRICITY":"0.00015450","NORAD_CAT_ID":"45536","DECAY_DATE":null,"GP_ID":"218721359","CENTER_NAME":"EARTH","RCS_SIZE":"LARGE","BSTAR":"0.00016784000000","RA_OF_ASC_NODE":"98.2702","EPOCH":"2022-11-24T15:45:10.502784"},{"PERIAPSIS":"446.750","APOAPSIS":"453.830","SITE":"AFETR","INCLINATION":"52.9740","TLE_LINE2":"2 45537  52.9740  24.3506 0005184   2.8189 357.2841 15.38586642145085","TIME_SYSTEM":"UTC","MEAN_ELEMENT_THEORY":"SGP4","ARG_OF_PERICENTER":"2.8189","MEAN_ANOMALY":"357.2841","ELEMENT_SET_NO":"999","TLE_LINE1":"1 45537U 20025G   22328.89693030  .00059130  00000-0  15268-2 0  9990","REV_AT_EPOCH":"14508","CLASSIFICATION_TYPE":"U","SEMIMAJOR_AXIS":"6828.425","MEAN_MOTION_DOT":"0.00059130","FILE":"3669335","PERIOD":"93.592","MEAN_MOTION":"15.38586642","LAUNCH_DATE":"2020-04-22","OBJECT_ID":"2020-025G","OBJECT_TYPE":"PAYLOAD","NORAD_CAT_ID":"45537","REF_FRAME":"TEME","MEAN_MOTION_DDOT":"0.0000000000000","ECCENTRICITY":"0.00051840","OBJECT_NAME":"STARLINK-1353","EPHEMERIS_TYPE":"0","COUNTRY_CODE":"US","EPOCH":"2022-11-24T21:31:34.777920","CENTER_NAME":"EARTH","BSTAR":"0.00152680000000","RCS_SIZE":"LARGE","RA_OF_ASC_NODE":"24.3506","DECAY_DATE":null,"GP_ID":"218721104"},{"PERIAPSIS":"546.228","SITE":"AFETR","APOAPSIS":"548.244","INCLINATION":"53.0542","TLE_LINE2":"2 45538  53.0542  98.7518 0001455  62.5011 297.6126 15.06392641144058","TIME_SYSTEM":"UTC","MEAN_ELEMENT_THEORY":"SGP4","ARG_OF_PERICENTER":"62.5011","MEAN_ANOMALY":"297.6126","ELEMENT_SET_NO":"999","TLE_LINE1":"1 45538U 20025H   22328.54948647 -.00000032  00000-0  16733-4 0  9998","CLASSIFICATION_TYPE":"U","REV_AT_EPOCH":"14405","SEMIMAJOR_AXIS":"6925.371","MEAN_MOTION_DOT":"-0.00000032","FILE":"3669335","PERIOD":"95.593","MEAN_MOTION":"15.06392641","OBJECT_ID":"2020-025H","LAUNCH_DATE":"2020-04-22","OBJECT_TYPE":"PAYLOAD","NORAD_CAT_ID":"45538","MEAN_MOTION_DDOT":"0.0000000000000","REF_FRAME":"TEME","ECCENTRICITY":"0.00014550","OBJECT_NAME":"STARLINK-1362","EPHEMERIS_TYPE":"0","COUNTRY_CODE":"US","EPOCH":"2022-11-24T13:11:15.631008","CENTER_NAME":"EARTH","BSTAR":"0.00001673300000","RCS_SIZE":"LARGE","RA_OF_ASC_NODE":"98.7518","DECAY_DATE":null,"GP_ID":"218720359"},{"OBJECT_TYPE":"PAYLOAD","OBJECT_ID":"2020-025K","LAUNCH_DATE":"2020-04-22","PERIOD":"95.592","MEAN_MOTION":"15.06399997","FILE":"3669335","MEAN_MOTION_DOT":"-0.00000829","SEMIMAJOR_AXIS":"6925.349","CLASSIFICATION_TYPE":"U","REV_AT_EPOCH":"14408","TLE_LINE1":"1 45540U 20025K   22328.79274978 -.00000829  00000-0 -36769-4 0  9993","ELEMENT_SET_NO":"999","MEAN_ANOMALY":"277.2543","ARG_OF_PERICENTER":"82.8597","MEAN_ELEMENT_THEORY":"SGP4","TIME_SYSTEM":"UTC","TLE_LINE2":"2 45540  53.0546  97.6654 0001333  82.8597 277.2543 15.06399997144084","INCLINATION":"53.0546","APOAPSIS":"548.137","SITE":"AFETR","PERIAPSIS":"546.290","GP_ID":"218720609","DECAY_DATE":null,"RA_OF_ASC_NODE":"97.6654","RCS_SIZE":"LARGE","BSTAR":"-0.00003676900000","CENTER_NAME":"EARTH","EPOCH":"2022-11-24T19:01:33.580992","COUNTRY_CODE":"US","EPHEMERIS_TYPE":"0","OBJECT_NAME":"STARLINK-1368","ECCENTRICITY":"0.00013330","MEAN_MOTION_DDOT":"0.0000000000000","REF_FRAME":"TEME","NORAD_CAT_ID":"45540"}];
